NORAD_CAT_ID,OBJECT_NAME,OBJECT_TYPE,EPOCH,MEAN_MOTION,ECCENTRICITY,INCLINATION,RA_OF_ASC_NODE,ARG_OF_PERICENTER,MEAN_ANOMALY,BSTAR,MEAN_MOTION_DOT,MEAN_MOTION_DDOT,TLE_LINE0,TLE_LINE1,TLE_LINE2,SEMIMAJOR_AXIS,PERIOD,APOGEE,PERIGEE,DECAYED
50202.0,STARLINK-3256,PAYLOAD,2022-07-20 01:53:16,15.08850091,0.0002002,53.2174,83.4828,58.6102,301.5086,0.00013438,1.852e-05,0.0,0 STARLINK-3256,1 50202U 21125AY  22201.07866431  .00001852  00000-0  13438-3 0  9990,2 50202  53.2174  83.4828 0002002  58.6102 301.5086 15.08850091 35673,6917.85,95.437,541.099,538.33,0.0
50202.0,STARLINK-3256,PAYLOAD,2022-07-20 09:50:12,15.08842209,0.0002078,53.217,81.9962,62.3112,297.8091,0.00015334,2.153e-05,0.0,0 STARLINK-3256,1 50202U 21125AY  22201.40986920  .00002153  00000-0  15334-3 0  9995,2 50202  53.2170  81.9962 0002078  62.3112 297.8091 15.08842209 36202,6917.874,95.437,541.1759999999998,538.3009999999998,0.0
50202.0,STARLINK-3256,PAYLOAD,2022-07-20 20:57:54,15.08845627,0.0001899999999999,53.2173,79.9137,64.9214,295.1975,7.453100000000001e-05,8.98e-06,0.0,0 STARLINK-3256,1 50202U 21125AY  22201.87354700  .00000898  00000-0  74531-4 0  9990,2 50202  53.2173  79.9137 0001900  64.9214 295.1975 15.08845627 36276,6917.863,95.437,541.043,538.414,0.0
50202.0,STARLINK-3256,PAYLOAD,2022-07-21 01:44:04,15.0884324,0.0001959,53.2172,79.0229,60.6481,299.4706,2.2145e-05,6.4e-07,0.0,0 STARLINK-3256,1 50202U 21125AY  22202.07226904  .00000064  00000-0  22145-4 0  9996,2 50202  53.2172  79.0229 0001959  60.6481 299.4706 15.08843240 36303,6917.87,95.437,541.091,538.38,0.0
50202.0,STARLINK-3256,PAYLOAD,2022-07-21 16:02:34,15.0882828,0.0002191999999999,53.2155,76.3459,60.8426,299.2785,-0.00020717,-3.583e-05,0.0,0 STARLINK-3256,1 50202U 21125AY  22202.66845079 -.00003583  00000-0 -20717-3 0  9994,2 50202  53.2155  76.3459 0002192  60.8426 299.2785 15.08828280 35918,6917.916,95.438,541.298,538.265,0.0
50202.0,STARLINK-3256,PAYLOAD,2022-07-21 19:13:20,15.08825689,0.0001783,53.2165,75.75,64.2124,295.9052,-0.00014914,-2.660000000000001e-05,0.0,0 STARLINK-3256,1 50202U 21125AY  22202.80093027 -.00002660  00000-0 -14914-3 0  9995,2 50202  53.2165  75.7500 0001783  64.2124 295.9052 15.08825689 36413,6917.924,95.438,541.023,538.556,0.0
50202.0,STARLINK-3256,PAYLOAD,2022-07-22 01:34:52,15.08828117,0.0001811999999999,53.2162,74.5616,57.8887,302.2281,-0.00011928,-2.185e-05,0.0,0 STARLINK-3256,1 50202U 21125AY  22203.06589016 -.00002185  00000-0 -11928-3 0  9996,2 50202  53.2162  74.5616 0001812  57.8887 302.2281 15.08828117 36451,6917.917,95.438,541.035,538.528,0.0
50202.0,STARLINK-3256,PAYLOAD,2022-07-22 07:56:25,15.088321100000002,0.0001818,53.2165,73.3725,59.1391,300.9779,-3.889e-05,-9.07e-06,0.0,0 STARLINK-3256,1 50202U 21125AY  22203.33084765 -.00000907  00000-0 -38890-4 0  9995,2 50202  53.2165  73.3725 0001818  59.1391 300.9779 15.08832110 36492,6917.905,95.438,541.0269999999998,538.512,0.0
50202.0,STARLINK-3256,PAYLOAD,2022-07-23 01:25:39,15.0883677,0.0001753,53.2168,70.1013,55.9252,304.1906,0.00011917,1.609e-05,0.0,0 STARLINK-3256,1 50202U 21125AY  22204.05948459  .00001609  00000-0  11917-3 0  9992,2 50202  53.2168  70.1013 0001753  55.9252 304.1906 15.08836770 36122,6917.89,95.438,540.9680000000002,538.543,0.0
50202.0,STARLINK-3256,PAYLOAD,2022-07-23 07:47:11,15.08842277,0.0001766999999999,53.2169,68.9121,55.2394,304.8764,0.00014266,1.983e-05,0.0,0 STARLINK-3256,1 50202U 21125AY  22204.32444172  .00001983  00000-0  14266-3 0  9990,2 50202  53.2169  68.9121 0001767  55.2394 304.8764 15.08842277 36648,6917.873000000001,95.437,540.961,538.516,0.0
50202.0,STARLINK-3256,PAYLOAD,2022-07-23 20:30:17,15.08833459,0.0001732,53.217,66.5334,53.9142,306.201,0.0001603,2.264e-05,0.0,0 STARLINK-3256,1 50202U 21125AY  22204.85437231  .00002264  00000-0  16030-3 0  9990,2 50202  53.2170  66.5334 0001732  53.9142 306.2010 15.08833459 36729,6917.9,95.438,540.964,538.567,0.0
50202.0,STARLINK-3256,PAYLOAD,2022-07-24 07:37:59,15.08842884,0.0001739,53.2169,64.4518,53.4453,306.6699,0.00021893,3.198e-05,0.0,0 STARLINK-3256,1 50202U 21125AY  22205.31804884  .00003198  00000-0  21893-3 0  9994,2 50202  53.2169  64.4518 0001739  53.4453 306.6699 15.08842884 36791,6917.871999999999,95.437,540.94,538.534,0.0
50202.0,STARLINK-3256,PAYLOAD,2022-07-24 20:21:04,15.08843859,0.000149,53.2166,62.0731,65.9051,294.2097,-1.6342e-05,-5.48e-06,0.0,0 STARLINK-3256,1 50202U 21125AY  22205.84796407 -.00000548  00000-0 -16342-4 0  9995,2 50202  53.2166  62.0731 0001490  65.9051 294.2097 15.08843859 36871,6917.869000000002,95.437,540.764,538.703,0.0
50202.0,STARLINK-3256,PAYLOAD,2022-07-25 02:42:36,15.08840143,0.0001768,53.2167,60.8835,56.1415,303.9745,-3.1896e-05,-7.96e-06,0.0,0 STARLINK-3256,1 50202U 21125AY  22206.11292789 -.00000796  00000-0 -31896-4 0  9996,2 50202  53.2167  60.8835 0001768  56.1415 303.9745 15.08840143 36430,6917.88,95.438,540.9680000000002,538.5219999999998,0.0
50202.0,STARLINK-3256,PAYLOAD,2022-07-25 13:50:18,15.08842832,0.0001754,53.2166,58.8016,56.1125,304.0033,1.6775e-05,-2.1e-07,0.0,0 STARLINK-3256,1 50202U 21125AY  22206.57660597 -.00000021  00000-0  16775-4 0  9991,2 50202  53.2166  58.8016 0001754  56.1125 304.0033 15.08842832 36989,6917.871999999999,95.437,540.95,538.523,0.0
50202.0,STARLINK-3256,PAYLOAD,2022-07-25 20:11:51,15.08843924,0.0001763,53.2166,57.6118,56.5051,303.611,0.00010978,1.46e-05,0.0,0 STARLINK-3256,1 50202U 21125AY  22206.84156560  .00001460  00000-0  10978-3 0  9996,2 50202  53.2166  57.6118 0001763  56.5051 303.6110 15.08843924 37021,6917.868,95.437,540.953,538.514,0.0
50202.0,STARLINK-3256,PAYLOAD,2022-07-26 07:19:32,15.08851461,0.0001774999999999,53.2166,55.5304,57.0034,303.1129,0.00019718,2.852e-05,0.0,0 STARLINK-3256,1 50202U 21125AY  22207.30524139  .00002852  00000-0  19718-3 0  9996,2 50202  53.2166  55.5304 0001775  57.0034 303.1129 15.08851461 36619,6917.845,95.437,540.938,538.482,0.0
50202.0,STARLINK-3256,PAYLOAD,2022-07-26 13:41:05,15.08844652,0.0001758,53.2166,54.3414,57.3336,302.7826,8.921399999999999e-05,1.132e-05,0.0,0 STARLINK-3256,1 50202U 21125AY  22207.57020406  .00001132  00000-0  89214-4 0  9992,2 50202  53.2166  54.3414 0001758  57.3336 302.7826 15.08844652 37138,6917.866,95.437,540.947,538.515,0.0
50202.0,STARLINK-3256,PAYLOAD,2022-07-26 20:02:43,15.08740843,0.0002658999999999,53.2167,53.152,61.0318,299.094,0.0028531999999999,0.00045291,0.0,0 STARLINK-3256,1 50202U 21125AY  22207.83522572  .00045291  00000-0  28532-2 0  9990,2 50202  53.2167  53.1520 0002659  61.0318 299.0940 15.08740843 37173,6918.183000000001,95.444,541.888,538.2090000000002,0.0
50202.0,STARLINK-3256,PAYLOAD,2022-07-26 21:38:01,15.08842169,0.0001858,53.2166,52.8543,57.6357,302.4815,-0.00015501,-2.754e-05,0.0,0 STARLINK-3256,1 50202U 21125AY  22207.90140519 -.00002754  00000-0 -15501-3 0  9997,2 50202  53.2166  52.8543 0001858  57.6357 302.4815 15.08842169 36709,6917.874,95.437,541.024,538.453,0.0
50202.0,STARLINK-3256,PAYLOAD,2022-07-27 11:56:30,15.08831563,0.0001779,53.2165,50.178,59.3626,300.7541,-1.7413e-05,-5.65e-06,0.0,0 STARLINK-3256,1 50202U 21125AY  22208.49757359 -.00000565  00000-0 -17413-4 0  9991,2 50202  53.2165  50.1780 0001779  59.3626 300.7541 15.08831563 37278,6917.906,95.438,541.002,538.54,0.0
50202.0,STARLINK-3256,PAYLOAD,2022-07-27 13:31:53,15.08829713,0.0001754999999999,53.2173,49.8803,60.2896,299.8271,-1.1428e-06,-3.06e-06,0.0,0 STARLINK-3256,1 50202U 21125AY  22208.56381823 -.00000306  00000-0 -11428-5 0  9992,2 50202  53.2173  49.8803 0001755  60.2896 299.8271 15.08829713 36802,6917.9119999999975,95.438,540.991,538.563,0.0
50202.0,STARLINK-3256,PAYLOAD,2022-07-27 19:53:26,15.08826216,0.0001742,53.2174,48.6908,60.8468,299.2698,-4.4767e-05,-1e-05,0.0,0 STARLINK-3256,1 50202U 21125AY  22208.82878237 -.00001000  00000-0 -44767-4 0  9994,2 50202  53.2174  48.6908 0001742  60.8468 299.2698 15.08826216 37323,6917.9230000000025,95.438,540.993,538.582,0.0
50202.0,STARLINK-3256,PAYLOAD,2022-07-28 11:47:18,15.08828403,0.0001712,53.2175,45.717,58.8137,301.3022,1.4817e-05,-5.2e-07,0.0,0 STARLINK-3256,1 50202U 21125AY  22209.49118238 -.00000052  00000-0  14817-4 0  9994,2 50202  53.2175  45.7170 0001712  58.8137 301.3022 15.08828403 37427,6917.916,95.438,540.965,538.596,0.0
50202.0,STARLINK-3256,PAYLOAD,2022-07-28 19:44:14,15.08827529,0.0001719,53.2173,44.2302,57.3366,302.7791,2.6754e-05,1.38e-06,0.0,0 STARLINK-3256,1 50202U 21125AY  22209.82238503  .00000138  00000-0  26754-4 0  9996,2 50202  53.2173  44.2302 0001719  57.3366 302.7791 15.08827529 37472,6917.919,95.438,540.9730000000002,538.594,0.0
50202.0,STARLINK-3256,PAYLOAD,2022-07-28 21:19:37,15.08828585,0.0001721999999999,53.2173,43.9328,57.4661,302.6498,3.5225e-05,2.72e-06,0.0,0 STARLINK-3256,1 50202U 21125AY  22209.88862465  .00000272  00000-0  35225-4 0  9994,2 50202  53.2173  43.9328 0001722  57.4661 302.6498 15.08828585 37004,6917.915,95.438,540.972,538.589,0.0
50202.0,STARLINK-3256,PAYLOAD,2022-07-29 13:13:28,15.08828918,0.0001699999999999,53.2173,40.9594,55.8151,304.3002,0.00013245,1.82e-05,0.0,0 STARLINK-3256,1 50202U 21125AY  22210.55102558  .00001820  00000-0  13245-3 0  9997,2 50202  53.2173  40.9594 0001700  55.8151 304.3002 15.08828918 37581,6917.9140000000025,95.438,540.955,538.6030000000002,0.0
50202.0,STARLINK-3256,PAYLOAD,2022-07-29 21:10:24,15.0883234,0.000172,53.2174,39.4726,56.7394,303.3763,0.00015116,2.118e-05,0.0,0 STARLINK-3256,1 50202U 21125AY  22210.88222544  .00002118  00000-0  15116-3 0  9991,2 50202  53.2174  39.4726 0001720  56.7394 303.3763 15.08832340 37636,6917.904,95.438,540.9590000000002,538.5790000000002,0.0
50202.0,STARLINK-3256,PAYLOAD,2022-07-29 22:45:47,15.08832853,0.0001721999999999,53.2173,39.1752,56.8038,303.3119,0.00015423,2.167e-05,0.0,0 STARLINK-3256,1 50202U 21125AY  22210.94846559  .00002167  00000-0  15423-3 0  9991,2 50202  53.2173  39.1752 0001722  56.8038 303.3119 15.08832853 37161,6917.901999999999,95.438,540.9580000000002,538.576,0.0
